NORAD_CAT_ID,OBJECT_NAME,OBJECT_TYPE,EPOCH,MEAN_MOTION,ECCENTRICITY,INCLINATION,RA_OF_ASC_NODE,ARG_OF_PERICENTER,MEAN_ANOMALY,BSTAR,MEAN_MOTION_DOT,MEAN_MOTION_DDOT,TLE_LINE0,TLE_LINE1,TLE_LINE2,SEMIMAJOR_AXIS,PERIOD,APOGEE,PERIGEE,DECAYED
53254.0,STARLINK-4134,PAYLOAD,2022-08-31 12:00:00,15.73219524,0.0003449,53.2167,215.4524,8.9224,181.7893,-0.005717,-0.00737399,0.0,0 STARLINK-4134,1 53254U 22086N   22243.50001157 -.00737399  00000-0 -57170-2 0  9991,2 53254  53.2167 215.4524 0003449   8.9224 181.7893 15.73219524  6601,6727.84,91.532,352.025,347.384,0.0
53254.0,STARLINK-4134,PAYLOAD,2022-08-31 14:00:01,15.73172793,0.0003421999999999,53.2171,215.0375,4.3753,298.5305,-0.0071664,-0.00904074,0.0,0 STARLINK-4134,1 53254U 22086N   22243.58334491 -.00904074  00000-0 -71664-2 0  9999,2 53254  53.2171 215.0375 0003422   4.3753 298.5305 15.73172793  1307,6727.973000000001,91.535,352.14,347.535,0.0
53254.0,STARLINK-4134,PAYLOAD,2022-08-31 20:00:01,15.72704747,0.0003197,53.2173,213.7948,6.2249,273.135,-0.0085212999999999,-0.01054401,0.0,0 STARLINK-4134,1 53254U 22086N   22243.83334491 -.01054401  00000-0 -85213-2 0  9993,2 53254  53.2173 213.7948 0003197   6.2249 273.1350 15.72704747  6651,6729.308000000001,91.562,353.324,349.021,0.0
53254.0,STARLINK-4134,PAYLOAD,2022-08-31 22:00:00,15.72513216,0.000331,53.2176,213.3822,5.0951,26.3181,-0.0085585,-0.01050776,0.0,0 STARLINK-4134,1 53254U 22086N   22243.91667824 -.01050776  00000-0 -85585-2 0  9994,2 53254  53.2176 213.3822 0003310   5.0951  26.3181 15.72513216  1301,6729.854,91.573,353.94699999999995,349.491,0.0
53254.0,STARLINK-4134,PAYLOAD,2022-09-01 14:00:01,15.70998751,0.0003336,53.2168,210.085,334.9402,230.9082,-0.0092037,-0.01058444,0.0,0 STARLINK-4134,1 53254U 22086N   22244.58335648 -.01058444  00000-0 -92037-2 0  9994,2 53254  53.2168 210.0850 0003336 334.9402 230.9082 15.70998751  1302,6734.178000000001,91.661,358.29,353.797,0.0
53254.0,STARLINK-4134,PAYLOAD,2022-09-01 22:00:00,15.70235466,0.0003526,53.2174,208.4381,359.9787,291.6219,-0.0094245,-0.01050442,0.0,0 STARLINK-4134,1 53254U 22086N   22244.91667824 -.01050442  00000-0 -94245-2 0  9998,2 53254  53.2174 208.4381 0003526 359.9787 291.6219 15.70235466  1306,6736.36,91.706,360.601,355.85,0.0
53254.0,STARLINK-4134,PAYLOAD,2022-09-02 06:00:00,15.69499376,0.000213,53.2171,206.8009,280.1629,96.3225,-0.0099816,-0.01075167,0.0,0 STARLINK-4134,1 53254U 22086N   22245.25001157 -.01075167  00000-0 -99816-2 0  9997,2 53254  53.2171 206.8009 0002130 280.1629  96.3225 15.69499376  6887,6738.467,91.749,361.767,358.896,0.0
53254.0,STARLINK-4134,PAYLOAD,2022-09-02 14:00:01,15.68724376,4.07e-05,53.2174,205.1521,49.5223,50.9711,-0.010179,-0.01062335,0.0,0 STARLINK-4134,1 53254U 22086N   22245.58334491 -.01062335  00000-0 -10179-1 0  9990,2 53254  53.2174 205.1521 0000407  49.5223  50.9711 15.68724376  1301,6740.686,91.794,362.825,362.276,0.0
53254.0,STARLINK-4134,PAYLOAD,2022-09-02 22:00:01,15.67957238,0.0001304,53.2177,203.5108,64.9524,118.6873,-0.010361,-0.0104934,0.0,0 STARLINK-4134,1 53254U 22086N   22245.91668981 -.01049340  00000-0 -10361-1 0  9995,2 53254  53.2177 203.5108 0001304  64.9524 118.6873 15.67957238  1304,6742.884,91.839,365.628,363.87,0.0
53254.0,STARLINK-4134,PAYLOAD,2022-09-03 06:00:00,15.67198973,0.0001239,53.2176,201.8741,66.92399999999999,198.8148,-0.010715,-0.01051614,0.0,0 STARLINK-4134,1 53254U 22086N   22246.25001157 -.01051614  00000-0 -10715-1 0  9999,2 53254  53.2176 201.8741 0001239  66.9240 198.8148 15.67198973  7035,6745.059,91.884,367.76,366.088,0.0
53254.0,STARLINK-4134,PAYLOAD,2022-09-03 14:00:01,15.66438952,0.0001020999999999,53.2171,200.2372,66.64399999999999,280.3487,-0.01105,-0.01051308,0.0,0 STARLINK-4134,1 53254U 22086N   22246.58334491 -.01051308  00000-0 -11050-1 0  9998,2 53254  53.2171 200.2372 0001021  66.6440 280.3487 15.66438952  1301,6747.241,91.928,369.794,368.417,0.0
53254.0,STARLINK-4134,PAYLOAD,2022-09-03 20:00:01,15.65867439,0.0001074,53.2174,199.0083,76.4373,240.8983,-0.011265,-0.0104762,0.0,0 STARLINK-4134,1 53254U 22086N   22246.83334491 -.01047620  00000-0 -11265-1 0  9996,2 53254  53.2174 199.0083 0001074  76.4373 240.8983 15.65867439  7123,6748.882,91.962,371.472,370.022,0.0
53254.0,STARLINK-4134,PAYLOAD,2022-09-03 22:00:00,15.65678452,0.0001132,53.2175,198.6001,66.7689,0.5657,-0.011363,-0.01048595,0.0,0 STARLINK-4134,1 53254U 22086N   22246.91667824 -.01048595  00000-0 -11363-1 0  9995,2 53254  53.2175 198.6001 0001132  66.7689   0.5657 15.65678452  1304,6749.425,91.973,372.054,370.526,0.0
53254.0,STARLINK-4134,PAYLOAD,2022-09-04 12:00:00,15.64350219,0.0001122,53.2172,195.7441,79.5074,36.2266,-0.0120019999999999,-0.0104982999999999,0.0,0 STARLINK-4134,1 53254U 22086N   22247.50001157 -.01049830  00000-0 -12002-1 0  9996,2 53254  53.2172 195.7441 0001122  79.5074  36.2266 15.64350219  7233,6753.245,92.051,375.86800000000005,374.352,0.0
53254.0,STARLINK-4134,PAYLOAD,2022-09-04 14:00:01,15.64162574,0.0001181,53.2175,195.3358,90.5398,134.8022,-0.01214,-0.01053566,0.0,0 STARLINK-4134,1 53254U 22086N   22247.58335648 -.01053566  00000-0 -12140-1 0  9993,2 53254  53.2175 195.3358 0001181  90.5398 134.8022 15.64162574  1308,6753.785,92.062,376.448,374.853,0.0
53254.0,STARLINK-4134,PAYLOAD,2022-09-04 20:00:01,15.63590471,0.0001248,53.2173,194.1127,79.6461,113.9191,-0.012352,-0.0104842999999999,0.0,0 STARLINK-4134,1 53254U 22086N   22247.83334491 -.01048430  00000-0 -12352-1 0  9995,2 53254  53.2173 194.1127 0001248  79.6461 113.9191 15.63590471  1305,6755.433000000001,92.096,378.141,376.455,0.0
53254.0,STARLINK-4134,PAYLOAD,2022-09-05 04:00:00,15.6283105,0.0001224,53.2174,192.4868,71.2916,199.1907,-0.012739,-0.01065481,0.0,0 STARLINK-4134,1 53254U 22086N   22248.16667824 -.01065481  00000-0 -12739-1 0  9995,2 53254  53.2174 192.4868 0001224  71.2916 199.1907 15.62831050  7336,6757.621,92.14,380.31300000000016,378.659,0.0
53254.0,STARLINK-4134,PAYLOAD,2022-09-05 14:00:01,15.6188029,0.0001175,53.2175,190.4537,71.0919,24.2557,-0.013189,-0.01062928,0.0,0 STARLINK-4134,1 53254U 22086N   22248.58334491 -.01062928  00000-0 -13189-1 0  9995,2 53254  53.2175 190.4537 0001175  71.0919  24.2557 15.61880290  1303,6760.363,92.197,383.022,381.434,0.0
53254.0,STARLINK-4134,PAYLOAD,2022-09-05 20:00:01,15.61310238,0.0001104,53.2176,189.2338,75.0985,346.4839,-0.0134659999999999,-0.01061496,0.0,0 STARLINK-4134,1 53254U 22086N   22248.83334491 -.01061496  00000-0 -13466-1 0  9990,2 53254  53.2176 189.2338 0001104  75.0985 346.4839 15.61310238  7441,6762.0080000000025,92.23,384.62,383.127,0.0
53254.0,STARLINK-4134,PAYLOAD,2022-09-05 22:00:00,15.61120579,0.0001252999999999,53.2177,188.8286,76.83,93.3827,-0.0135699999999999,-0.01061845,0.0,0 STARLINK-4134,1 53254U 22086N   22248.91667824 -.01061845  00000-0 -13570-1 0  9992,2 53254  53.2177 188.8286 0001253  76.8300  93.3827 15.61120579  1305,6762.556,92.241,385.268,383.574,0.0
53254.0,STARLINK-4134,PAYLOAD,2022-09-06 12:00:00,15.59794463,0.0001259,53.2173,185.9913,73.852,135.1767,-0.014361,-0.01067076,0.0,0 STARLINK-4134,1 53254U 22086N   22249.50001157 -.01067076  00000-0 -14361-1 0  9990,2 53254  53.2173 185.9913 0001259  73.8520 135.1767 15.59794463  7549,6766.388000000001,92.32,389.105,387.402,0.0
53254.0,STARLINK-4134,PAYLOAD,2022-09-06 14:00:01,15.59603198,0.0001072,53.2173,185.5862,72.4054,244.7982,-0.014434,-0.01064809,0.0,0 STARLINK-4134,1 53254U 22086N   22249.58334491 -.01064809  00000-0 -14434-1 0  9990,2 53254  53.2173 185.5862 0001072  72.4054 244.7982 15.59603198  1306,6766.941999999999,92.331,389.532,388.081,0.0
53254.0,STARLINK-4134,PAYLOAD,2022-09-06 20:00:01,15.59032432,0.000117,53.2174,184.3715,77.681,203.7034,-0.014698,-0.01061216,0.0,0 STARLINK-4134,1 53254U 22086N   22249.83334491 -.01061216  00000-0 -14698-1 0  9999,2 53254  53.2174 184.3715 0001170  77.6810 203.7034 15.59032432  1307,6768.593000000003,92.365,391.25,389.666,0.0
53254.0,STARLINK-4134,PAYLOAD,2022-09-07 04:00:00,15.58275034,0.0001227,53.2173,182.7564,55.5862,297.2388,-0.015197,-0.0106562,0.0,0 STARLINK-4134,1 53254U 22086N   22250.16667824 -.01065620  00000-0 -15197-1 0  9994,2 53254  53.2173 182.7564 0001227  55.5862 297.2388 15.58275034  7655,6770.786,92.41,393.482,391.82,0.0
53254.0,STARLINK-4134,PAYLOAD,2022-09-07 14:00:01,15.57322582,0.0001252999999999,53.2174,180.7358,70.4904,100.3561,-0.015665,-0.01060096,0.0,0 STARLINK-4134,1 53254U 22086N   22250.58334491 -.01060096  00000-0 -15665-1 0  9993,2 53254  53.2174 180.7358 0001253  70.4904 100.3561 15.57322582  1300,6773.547,92.466,396.26,394.56300000000016,0.0
53254.0,STARLINK-4134,PAYLOAD,2022-09-07 22:00:00,15.56563509,0.0001256,53.2176,179.1233,76.0311,164.2035,-0.016125,-0.01060492,0.0,0 STARLINK-4134,1 53254U 22086N   22250.91667824 -.01060492  00000-0 -16125-1 0  9991,2 53254  53.2176 179.1233 0001256  76.0311 164.2035 15.56563509  1303,6775.749,92.511,398.465,396.762,0.0
53254.0,STARLINK-4134,PAYLOAD,2022-09-08 14:00:01,15.55044338,0.0001072,53.2175,175.9021,64.9138,311.3608,-0.017063,-0.01060385,0.0,0 STARLINK-4134,1 53254U 22086N   22251.58334491 -.01060385  00000-0 -17063-1 0  9999,2 53254  53.2175 175.9021 0001072  64.9138 311.3608 15.55044338  1304,6780.161,92.602,402.753,401.299,0.0
53254.0,STARLINK-4134,PAYLOAD,2022-09-08 22:00:00,15.54313024,0.0001189999999999,53.2175,174.2966,72.5918,10.3168,-0.018172,-0.0109564,0.0,0 STARLINK-4134,1 53254U 22086N   22251.91667824 -.01095640  00000-0 -18172-1 0  9999,2 53254  53.2175 174.2966 0001190  72.5918  10.3168 15.54313024  1303,6782.2869999999975,92.645,404.959,403.345,0.0
53254.0,STARLINK-4134,PAYLOAD,2022-09-09 14:00:01,15.52764702,0.000128,53.2174,171.085,69.192,144.2971,-0.018493,-0.01057336,0.0,0 STARLINK-4134,1 53254U 22086N   22252.58334491 -.01057336  00000-0 -18493-1 0  9990,2 53254  53.2174 171.0850 0001280  69.1920 144.2971 15.52764702  1304,6786.795,92.738,409.529,407.791,0.0
